CCSDS_OMM_VERS = 2.0
CREATION_DATE  = 
ORIGINATOR     = 

OBJECT_NAME    = KUIPER-00179
OBJECT_ID      = 2025-301D
CENTER_NAME    = EARTH
REF_FRAME      = TEME
TIME_SYSTEM    = UTC
MEAN_ELEMENT_THEORY = SGP/SGP4

EPOCH          = 2026-01-07T11:11:10.442976
MEAN_MOTION    = 15.36677645
ECCENTRICITY   = .0003429
INCLINATION    = 51.8734
RA_OF_ASC_NODE = 0.9228
ARG_OF_PERICENTER = 116.5592
MEAN_ANOMALY   = 243.5746

EPHEMERIS_TYPE = 0
CLASSIFICATION_TYPE = U
NORAD_CAT_ID   = 67136
ELEMENT_SET_NO = 999
REV_AT_EPOCH   = 450
BSTAR          = .74965E-3
MEAN_MOTION_DOT = .26983E-3
MEAN_MOTION_DDOT = 0

CCSDS_OMM_VERS = 2.0
CREATION_DATE  = 
ORIGINATOR     = 

OBJECT_NAME    = KUIPER-00181
OBJECT_ID      = 2025-301E
CENTER_NAME    = EARTH
REF_FRAME      = TEME
TIME_SYSTEM    = UTC
MEAN_ELEMENT_THEORY = SGP/SGP4

EPOCH          = 2026-01-07T11:49:59.508768
MEAN_MOTION    = 15.34900650
ECCENTRICITY   = .0010356
INCLINATION    = 51.8657
RA_OF_ASC_NODE = 1.0897
ARG_OF_PERICENTER = 181.9203
MEAN_ANOMALY   = 178.1745

EPHEMERIS_TYPE = 0
CLASSIFICATION_TYPE = U
NORAD_CAT_ID   = 67137
ELEMENT_SET_NO = 999
REV_AT_EPOCH   = 448
BSTAR          = -.51923E-4
MEAN_MOTION_DOT = -.2173E-4
MEAN_MOTION_DDOT = 0

CCSDS_OMM_VERS = 2.0
CREATION_DATE  = 
ORIGINATOR     = 

OBJECT_NAME    = KUIPER-00183
OBJECT_ID      = 2025-301F
CENTER_NAME    = EARTH
REF_FRAME      = TEME
TIME_SYSTEM    = UTC
MEAN_ELEMENT_THEORY = SGP/SGP4

EPOCH          = 2026-01-07T11:56:20.366880
MEAN_MOTION    = 15.34647384
ECCENTRICITY   = .0011077
INCLINATION    = 51.8635
RA_OF_ASC_NODE = 1.1146
ARG_OF_PERICENTER = 183.9988
MEAN_ANOMALY   = 176.0911

EPHEMERIS_TYPE = 0
CLASSIFICATION_TYPE = U
NORAD_CAT_ID   = 67138
ELEMENT_SET_NO = 999
REV_AT_EPOCH   = 449
BSTAR          = .6889E-3
MEAN_MOTION_DOT = .23215E-3
MEAN_MOTION_DDOT = 0

CCSDS_OMM_VERS = 2.0
CREATION_DATE  = 
ORIGINATOR     = 

OBJECT_NAME    = KUIPER-00184
OBJECT_ID      = 2025-301G
CENTER_NAME    = EARTH
REF_FRAME      = TEME
TIME_SYSTEM    = UTC
MEAN_ELEMENT_THEORY = SGP/SGP4

EPOCH          = 2026-01-07T10:14:59.941824
MEAN_MOTION    = 15.34883791
ECCENTRICITY   = .000934
INCLINATION    = 51.8645
RA_OF_ASC_NODE = 1.3962
ARG_OF_PERICENTER = 182.0536
MEAN_ANOMALY   = 178.0413

EPHEMERIS_TYPE = 0
CLASSIFICATION_TYPE = U
NORAD_CAT_ID   = 67139
ELEMENT_SET_NO = 999
REV_AT_EPOCH   = 459
BSTAR          = .48247E-3
MEAN_MOTION_DOT = .16243E-3
MEAN_MOTION_DDOT = 0

CCSDS_OMM_VERS = 2.0
CREATION_DATE  = 
ORIGINATOR     = 

OBJECT_NAME    = KUIPER-00186
OBJECT_ID      = 2025-301H
CENTER_NAME    = EARTH
REF_FRAME      = TEME
TIME_SYSTEM    = UTC
MEAN_ELEMENT_THEORY = SGP/SGP4

EPOCH          = 2026-01-07T10:02:18.520224
MEAN_MOTION    = 15.35690507
ECCENTRICITY   = .000778
INCLINATION    = 51.8694
RA_OF_ASC_NODE = 1.3471
ARG_OF_PERICENTER = 166.0693
MEAN_ANOMALY   = 194.0509

EPHEMERIS_TYPE = 0
CLASSIFICATION_TYPE = U
NORAD_CAT_ID   = 67140
ELEMENT_SET_NO = 999
REV_AT_EPOCH   = 431
BSTAR          = .91117E-3
MEAN_MOTION_DOT = .31889E-3
MEAN_MOTION_DDOT = 0

CCSDS_OMM_VERS = 2.0
CREATION_DATE  = 
ORIGINATOR     = 

OBJECT_NAME    = KUIPER-00187
OBJECT_ID      = 2025-301J
CENTER_NAME    = EARTH
REF_FRAME      = TEME
TIME_SYSTEM    = UTC
MEAN_ELEMENT_THEORY = SGP/SGP4

EPOCH          = 2026-01-07T11:20:20.732352
MEAN_MOTION    = 15.36279928
ECCENTRICITY   = .0004935
INCLINATION    = 51.8710
RA_OF_ASC_NODE = 0.9658
ARG_OF_PERICENTER = 151.9570
MEAN_ANOMALY   = 208.1683

EPHEMERIS_TYPE = 0
CLASSIFICATION_TYPE = U
NORAD_CAT_ID   = 67141
ELEMENT_SET_NO = 999
REV_AT_EPOCH   = 432
BSTAR          = .70468E-3
MEAN_MOTION_DOT = .25013E-3
MEAN_MOTION_DDOT = 0

CCSDS_OMM_VERS = 2.0
CREATION_DATE  = 
ORIGINATOR     = 

OBJECT_NAME    = KUIPER-00188
OBJECT_ID      = 2025-301K
CENTER_NAME    = EARTH
REF_FRAME      = TEME
TIME_SYSTEM    = UTC
MEAN_ELEMENT_THEORY = SGP/SGP4

EPOCH          = 2026-01-07T10:04:19.459488
MEAN_MOTION    = 15.35545103
ECCENTRICITY   = .000759
INCLINATION    = 51.8708
RA_OF_ASC_NODE = 1.3570
ARG_OF_PERICENTER = 172.8618
MEAN_ANOMALY   = 187.2477

EPHEMERIS_TYPE = 0
CLASSIFICATION_TYPE = U
NORAD_CAT_ID   = 67142
ELEMENT_SET_NO = 999
REV_AT_EPOCH   = 431
BSTAR          = .42273E-3
MEAN_MOTION_DOT = .14483E-3
MEAN_MOTION_DDOT = 0

CCSDS_OMM_VERS = 2.0
CREATION_DATE  = 
ORIGINATOR     = 

OBJECT_NAME    = KUIPER-00191
OBJECT_ID      = 2025-301L
CENTER_NAME    = EARTH
REF_FRAME      = TEME
TIME_SYSTEM    = UTC
MEAN_ELEMENT_THEORY = SGP/SGP4

EPOCH          = 2026-01-07T11:33:59.463072
MEAN_MOTION    = 15.35703154
ECCENTRICITY   = .0006657
INCLINATION    = 51.8678
RA_OF_ASC_NODE = 1.0235
ARG_OF_PERICENTER = 167.2209
MEAN_ANOMALY   = 192.8947

EPHEMERIS_TYPE = 0
CLASSIFICATION_TYPE = U
NORAD_CAT_ID   = 67143
ELEMENT_SET_NO = 999
REV_AT_EPOCH   = 435
BSTAR          = .76912E-3
MEAN_MOTION_DOT = .26844E-3
MEAN_MOTION_DDOT = 0

CCSDS_OMM_VERS = 2.0
CREATION_DATE  = 
ORIGINATOR     = 

OBJECT_NAME    = KUIPER-00196
OBJECT_ID      = 2025-301M
CENTER_NAME    = EARTH
REF_FRAME      = TEME
TIME_SYSTEM    = UTC
MEAN_ELEMENT_THEORY = SGP/SGP4

EPOCH          = 2026-01-07T11:16:31.222848
MEAN_MOTION    = 15.36463371
ECCENTRICITY   = .0003919
INCLINATION    = 51.8726
RA_OF_ASC_NODE = 0.9482
ARG_OF_PERICENTER = 129.7537
MEAN_ANOMALY   = 230.3795

EPHEMERIS_TYPE = 0
CLASSIFICATION_TYPE = U
NORAD_CAT_ID   = 67144
ELEMENT_SET_NO = 999
REV_AT_EPOCH   = 432
BSTAR          = .72555E-3
MEAN_MOTION_DOT = .2592E-3
MEAN_MOTION_DDOT = 0

CCSDS_OMM_VERS = 2.0
CREATION_DATE  = 
ORIGINATOR     = 

OBJECT_NAME    = KUIPER-00204
OBJECT_ID      = 2025-301N
CENTER_NAME    = EARTH
REF_FRAME      = TEME
TIME_SYSTEM    = UTC
MEAN_ELEMENT_THEORY = SGP/SGP4

EPOCH          = 2026-01-07T12:00:01.999296
MEAN_MOTION    = 15.31179819
ECCENTRICITY   = .0004453
INCLINATION    = 51.8773
RA_OF_ASC_NODE = 0.7996
ARG_OF_PERICENTER = 101.6322
MEAN_ANOMALY   = 52.7808

EPHEMERIS_TYPE = 0
CLASSIFICATION_TYPE = U
NORAD_CAT_ID   = 67145
ELEMENT_SET_NO = 999
REV_AT_EPOCH   = 443
BSTAR          = -.32184E-3
MEAN_MOTION_DOT = -.10191E-3
MEAN_MOTION_DDOT = 0

CCSDS_OMM_VERS = 2.0
CREATION_DATE  = 
ORIGINATOR     = 

OBJECT_NAME    = KUIPER-00210
OBJECT_ID      = 2025-301P
CENTER_NAME    = EARTH
REF_FRAME      = TEME
TIME_SYSTEM    = UTC
MEAN_ELEMENT_THEORY = SGP/SGP4

EPOCH          = 2026-01-07T11:54:22.794624
MEAN_MOTION    = 15.34689792
ECCENTRICITY   = .0010419
INCLINATION    = 51.8619
RA_OF_ASC_NODE = 1.1039
ARG_OF_PERICENTER = 189.2742
MEAN_ANOMALY   = 170.8053

EPHEMERIS_TYPE = 0
CLASSIFICATION_TYPE = U
NORAD_CAT_ID   = 67146
ELEMENT_SET_NO = 999
REV_AT_EPOCH   = 449
BSTAR          = .54071E-3
MEAN_MOTION_DOT = .18147E-3
MEAN_MOTION_DDOT = 0

CCSDS_OMM_VERS = 2.0
CREATION_DATE  = 
ORIGINATOR     = 

OBJECT_NAME    = KUIPER-00221
OBJECT_ID      = 2025-301Q
CENTER_NAME    = EARTH
REF_FRAME      = TEME
TIME_SYSTEM    = UTC
MEAN_ELEMENT_THEORY = SGP/SGP4

EPOCH          = 2026-01-07T11:22:26.510016
MEAN_MOTION    = 15.36216898
ECCENTRICITY   = .0004977
INCLINATION    = 51.8718
RA_OF_ASC_NODE = 0.9752
ARG_OF_PERICENTER = 148.0526
MEAN_ANOMALY   = 212.0763

EPHEMERIS_TYPE = 0
CLASSIFICATION_TYPE = U
NORAD_CAT_ID   = 67147
ELEMENT_SET_NO = 999
REV_AT_EPOCH   = 432
BSTAR          = .60959E-3
MEAN_MOTION_DOT = .21531E-3
MEAN_MOTION_DDOT = 0

